OBJECT_NAME,OBJECT_ID,EPOCH,MEAN_MOTION,ECCENTRICITY,INCLINATION,RA_OF_ASC_NODE,ARG_OF_PERICENTER,MEAN_ANOMALY,EPHEMERIS_TYPE,CLASSIFICATION_TYPE,NORAD_CAT_ID,ELEMENT_SET_NO,REV_AT_EPOCH,BSTAR,MEAN_MOTION_DOT,MEAN_MOTION_DDOT
STARLINK-32804,2025-019T,2026-06-30T10:28:18.377184,15.27543278,.000027,42.9967,172.2893,161.5419,198.5443,0,U,62846,999,7949,.12270307E-3,.3113E-4,0
STARLINK-32799,2025-019U,2026-06-29T23:06:57.506112,15.27572037,.00022157,43.0021,174.7507,265.8719,94.1880,0,U,62847,999,7942,.1074244E-3,.2694E-4,0
STARLINK-32781,2025-019V,2026-06-29T23:27:19.186560,15.27602738,.0000618,42.9967,174.8621,254.2287,105.8496,0,U,62848,999,7942,.73823478E-3,.20122E-3,0
STARLINK-32809,2025-019W,2026-06-29T16:35:32.324640,15.27585045,.0000985,43.0000,176.1495,273.9498,86.1241,0,U,62849,999,7938,.21393975E-3,.5631E-4,0
SPAINSAT NG I,2025-021A,2026-06-29T20:46:38.707392,1.00273104,.00003667,0.0152,353.5474,122.2352,142.8104,0,U,62852,999,411,0,.162E-5,0
STARLINK-32868,2025-022A,2026-06-30T02:28:11.050752,15.34400295,.00012591,53.1592,325.1623,83.6446,276.4700,0,U,62854,999,7995,.10318097E-2,.34647E-3,0
STARLINK-32867,2025-022B,2026-06-30T18:55:17.384160,15.34421303,.0001167,53.1614,323.7313,87.9636,272.1501,0,U,62855,999,7922,.11934E-2,.40187E-3,0
STARLINK-32860,2025-022C,2026-06-30T02:37:57.148608,15.34397242,.00018106,53.1592,326.6224,94.3981,265.7229,0,U,62856,999,7912,.74900022E-3,.25012E-3,0
STARLINK-32873,2025-022D,2026-06-30T19:58:47.728704,15.34429658,.000121,53.1594,323.3168,70.0249,290.0884,0,U,62857,999,7923,.1387E-2,.46824E-3,0
STARLINK-32866,2025-022E,2026-06-30T02:40:18.271776,15.34397301,.00011227,53.1592,325.2126,81.5927,278.5203,0,U,62858,999,7914,.86561006E-3,.2898E-3,0
STARLINK-32869,2025-022F,2026-06-30T18:46:12.194112,15.34407281,.0001368,53.1618,323.6881,89.0633,271.0526,0,U,62859,999,7922,.98467E-3,.33047E-3,0
STARLINK-32831,2025-022G,2026-06-30T18:00:45.988128,15.34392204,.000154,53.1595,323.5116,74.0143,286.1029,0,U,62860,999,7921,.10931E-2,.36729E-3,0
STARLINK-32859,2025-022H,2026-06-30T19:04:23.202336,15.34410462,.0001519,53.1609,323.7831,93.6224,266.4952,0,U,62861,999,7922,.11236E-2,.37791E-3,0
STARLINK-32864,2025-022J,2026-06-30T02:40:58.443456,15.34392777,.000126,53.1607,326.6212,90.4168,269.6979,0,U,62862,999,7912,.85968837E-3,.28774E-3,0
STARLINK-32808,2025-022K,2026-06-29T19:25:19.744320,15.34406639,.00011581,53.1616,328.2971,74.1047,286.0084,0,U,62863,999,7907,.76442673E-3,.25545E-3,0
STARLINK-32862,2025-022L,2026-06-30T18:34:05.647008,15.34393933,.0001139,53.1609,323.6577,86.4182,273.6951,0,U,62864,999,7922,.95798E-3,.32123E-3,0
STARLINK-32841,2025-022M,2026-06-30T18:31:03.304992,15.34402825,.0000338,53.1610,323.6437,107.0904,253.0136,0,U,62865,999,7921,.10509E-2,.35301E-3,0
STARLINK-32695,2025-022N,2026-06-30T19:45:59.883264,15.34417065,.0001592,53.1579,321.8419,51.4787,308.6358,0,U,62866,999,7925,.13216E-2,.44565E-3,0
STARLINK-32846,2025-022P,2026-06-30T18:37:06.750048,15.34407031,.0001102,53.1616,323.6501,88.4220,271.6909,0,U,62867,999,7922,.10716E-2,.36013E-3,0
STARLINK-32822,2025-022Q,2026-06-30T19:46:40.473120,15.34418434,.0001095,53.1591,323.2570,114.7593,245.3524,0,U,62868,999,7923,.13805E-2,.46583E-3,0
STARLINK-32813,2025-022R,2026-06-29T19:16:14.015136,15.34410595,.00011021,53.1617,328.2617,89.8456,270.2673,0,U,62869,999,7907,.69219715E-3,.23091E-3,0
STARLINK-32861,2025-022S,2026-06-29T18:48:17.688384,15.34398215,.00011059,53.1596,326.7275,72.9494,287.1629,0,U,62870,999,7909,.62296889E-3,.20729E-3,0
STARLINK-32814,2025-022T,2026-06-30T19:37:35.918112,15.34440061,.0000331,53.1591,323.2253,70.8815,289.2224,0,U,62871,999,7923,.12555E-2,.42338E-3,0
STARLINK-32849,2025-022U,2026-06-30T02:28:51.750336,15.34397204,.00017507,53.1585,326.5859,89.1609,270.9594,0,U,62872,999,7912,.9676102E-3,.32455E-3,0
STARLINK-32833,2025-022V,2026-06-30T18:28:01.572096,15.34415262,.0000491,53.1604,323.6308,90.8604,269.2455,0,U,62873,999,7922,.94706E-3,.31773E-3,0
STARLINK-32793,2025-022W,2026-06-30T19:10:26.797728,15.34416299,.0001199,53.1613,323.8156,74.4170,285.6965,0,U,62874,999,7922,.12613E-2,.42503E-3,0
STARLINK-32834,2025-022X,2026-06-29T15:35:18.864960,15.34420739,.00006295,53.1584,328.7263,118.7688,241.3378,0,U,62875,999,7905,.10742923E-2,.36119E-3,0
QZS-6 (MICHIBIKI-6),2025-023A,2026-06-30T19:49:21.525312,1.00272359,.0002108,0.0480,283.5955,189.0525,194.1125,0,U,62876,999,508,0,-.223E-5,0
STARLINK-11371 [DTC],2025-024A,2026-06-30T13:14:46.441824,15.70864830,.0001928,43.0010,221.4551,257.5300,102.5352,0,U,62879,999,8121,.10525E-2,.136994E-2,0
STARLINK-11352 [DTC],2025-024B,2026-06-30T01:40:20.155872,15.70885496,.0001471,42.9994,223.8346,290.5896,69.4814,0,U,62880,999,8114,.11600061E-2,.151427E-2,0
