STARLINK-32804          
1 62846U 25019T   26181.43632381  .00003113  00000+0  12270-3 0  9993
2 62846  42.9967 172.2893 0000270 161.5419 198.5443 15.27543278 79490
STARLINK-32799          
1 62847U 25019U   26180.96316558  .00002694  00000+0  10742-3 0  9991
2 62847  43.0021 174.7507 0002215 265.8719  94.1880 15.27572037 79429
STARLINK-32781          
1 62848U 25019V   26180.97730540  .00020122  00000+0  73823-3 0  9999
2 62848  42.9967 174.8621 0000618 254.2287 105.8496 15.27602738 79427
STARLINK-32809          
1 62849U 25019W   26180.69134635  .00005631  00000+0  21394-3 0  9996
2 62849  43.0000 176.1495 0000985 273.9498  86.1241 15.27585045 79386
SPAINSAT NG I           
1 62852U 25021A   26180.86572578  .00000162  00000+0  00000+0 0  9995
2 62852   0.0152 353.5474 0000366 122.2352 142.8104  1.00273104  4110
STARLINK-32868          
1 62854U 25022A   26181.10290568  .00034647  00000+0  10318-2 0  9993
2 62854  53.1592 325.1623 0001259  83.6446 276.4700 15.34400295 79951
STARLINK-32867          
1 62855U 25022B   26181.78839565  .00040187  00000+0  11934-2 0  9995
2 62855  53.1614 323.7313 0001167  87.9636 272.1501 15.34421303 79228
STARLINK-32860          
1 62856U 25022C   26181.10968922  .00025012  00000+0  74900-3 0  9995
2 62856  53.1592 326.6224 0001810  94.3981 265.7229 15.34397242 79125
STARLINK-32873          
1 62857U 25022D   26181.83249686  .00046824  00000+0  13870-2 0  9997
2 62857  53.1594 323.3168 0001210  70.0249 290.0884 15.34429658 79238
STARLINK-32866          
1 62858U 25022E   26181.11132259  .00028980  00000+0  86561-3 0  9997
2 62858  53.1592 325.2126 0001122  81.5927 278.5203 15.34397301 79149
STARLINK-32869          
1 62859U 25022F   26181.78208558  .00033047  00000+0  98467-3 0  9995
2 62859  53.1618 323.6881 0001368  89.0633 271.0526 15.34407281 79222
STARLINK-32831          
1 62860U 25022G   26181.75053227  .00036729  00000+0  10931-2 0  9994
2 62860  53.1595 323.5116 0001540  74.0143 286.1029 15.34392204 79212
STARLINK-32859          
1 62861U 25022H   26181.79471299  .00037791  00000+0  11236-2 0  9991
2 62861  53.1609 323.7831 0001519  93.6224 266.4952 15.34410462 79222
STARLINK-32864          
1 62862U 25022J   26181.11178754  .00028774  00000+0  85969-3 0  9994
2 62862  53.1607 326.6212 0001260  90.4168 269.6979 15.34392777 79122
STARLINK-32808          
1 62863U 25022K   26180.80925630  .00025545  00000+0  76443-3 0  9993
2 62863  53.1616 328.2971 0001158  74.1047 286.0084 15.34406639 79071
STARLINK-32862          
1 62864U 25022L   26181.77367647  .00032123  00000+0  95798-3 0  9993
2 62864  53.1609 323.6577 0001139  86.4182 273.6951 15.34393933 79224
STARLINK-32841          
1 62865U 25022M   26181.77156603  .00035301  00000+0  10509-2 0  9999
2 62865  53.1610 323.6437 0000338 107.0904 253.0136 15.34402825 79211
STARLINK-32695          
1 62866U 25022N   26181.82360976  .00044565  00000+0  13216-2 0  9996
2 62866  53.1579 321.8419 0001592  51.4787 308.6358 15.34417065 79259
STARLINK-32846          
1 62867U 25022P   26181.77577257  .00036013  00000+0  10716-2 0  9994
2 62867  53.1616 323.6501 0001102  88.4220 271.6909 15.34407031 79223
STARLINK-32822          
1 62868U 25022Q   26181.82407955  .00046583  00000+0  13805-2 0  9993
2 62868  53.1591 323.2570 0001095 114.7593 245.3524 15.34418434 79236
STARLINK-32813          
1 62869U 25022R   26180.80293999  .00023091  00000+0  69220-3 0  9994
2 62869  53.1617 328.2617 0001102  89.8456 270.2673 15.34410595 79076
STARLINK-32861          
1 62870U 25022S   26180.78353806  .00020729  00000+0  62297-3 0  9999
2 62870  53.1596 326.7275 0001105  72.9494 287.1629 15.34398215 79099
STARLINK-32814          
1 62871U 25022T   26181.81777683  .00042338  00000+0  12555-2 0  9999
2 62871  53.1591 323.2253 0000331  70.8815 289.2224 15.34440061 79234
STARLINK-32849          
1 62872U 25022U   26181.10337674  .00032455  00000+0  96761-3 0  9995
2 62872  53.1585 326.5859 0001750  89.1609 270.9594 15.34397204 79121
STARLINK-32833          
1 62873U 25022V   26181.76946264  .00031773  00000+0  94706-3 0  9998
2 62873  53.1604 323.6308 0000491  90.8604 269.2455 15.34415262 79229
STARLINK-32793          
1 62874U 25022W   26181.79892127  .00042503  00000+0  12613-2 0  9999
2 62874  53.1613 323.8156 0001199  74.4170 285.6965 15.34416299 79224
STARLINK-32834          
1 62875U 25022X   26180.64952390  .00036119  00000+0  10743-2 0  9990
2 62875  53.1584 328.7263 0000629 118.7688 241.3378 15.34420739 79050
QZS-6 (MICHIBIKI-6)     
1 62876U 25023A   26181.82594358 -.00000223  00000+0  00000+0 0  9999
2 62876   0.0480 283.5955 0002108 189.0525 194.1125  1.00272359  5086
STARLINK-11371 [DTC]    
1 62879U 25024A   26181.55192641  .00136994  00000+0  10525-2 0  9992
2 62879  43.0010 221.4551 0001928 257.5300 102.5352 15.70864830 81216
STARLINK-11352 [DTC]    
1 62880U 25024B   26181.06967773  .00151427  00000+0  11600-2 0  9999
2 62880  42.9994 223.8346 0001471 290.5896  69.4814 15.70885496 81142
